#aV2009  5 15  0  0   .00000000      96 DD+AD WGS84 FIT  NGA
## 1531 432000.00000000   900.00000000 54966  .0000000000000
+   31     2  3  4  5  6  7  8  9 10 11 12 13 14 15 16 17 18
+         19 20 21 22 23 24 25 26 27 28 29 30 31 32  0  0  0
+          0  0  0  0  0  0  0  0  0  0  0  0  0  0  0  0  0
+          0  0  0  0  0  0  0  0  0  0  0  0  0  0  0  0  0
+          0  0  0  0  0  0  0  0  0  0  0  0  0  0  0  0  0
++         0  0  0  0  0  0  0  0  0  0  0  0  0  0  0  0  0
++         0  0  0  0  0  0  0  0  0  0  0  0  0  0  0  0  0
++         0  0  0  0  0  0  0  0  0  0  0  0  0  0  0  0  0
++         0  0  0  0  0  0  0  0  0  0  0  0  0  0  0  0  0
++         0  0  0  0  0  0  0  0  0  0  0  0  0  0  0  0  0
%c cc cc ccc ccc cccc cccc cccc cccc ccccc ccccc ccccc ccccc
%c cc cc ccc ccc cccc cccc cccc cccc ccccc ccccc ccccc ccccc
%f  0.0000000  0.000000000  0.00000000000  0.000000000000000
%f  0.0000000  0.000000000  0.00000000000  0.000000000000000
%i    0    0    0    0      0      0      0      0         0
%i    0    0    0    0      0      0      0      0         0
/*      NGA, ST. LOUIS,MO.                                  
/*   EPHEMERIS COMPUTED FROM  3 DAYS OF DATA                
/* CCCCCCCCCCCCCCCCCCCCCCCCCCCCCCCCCCCCCCCCCCCCCCCCCCCCCCCCC
/* CCCCCCCCCCCCCCCCCCCCCCCCCCCCCCCCCCCCCCCCCCCCCCCCCCCCCCCCC
*  2009  5 15 12 30   .00000000                                                 
P  2  22327.819047 -13008.567133   5002.848245    154.243439                    
V  2   7475.713245    951.757068 -30715.574135       .005518                    
P  3 -10155.152685  20755.128870  12471.168722    393.310306                    
V  3  -2885.632862 -16663.252234  25128.820964       .050818                    
P  4  25544.014812  -4761.110847  -6504.219588    -91.948406                    
V  4  -6426.624089   5651.136493 -29621.847650      -.154236                    
P  5  -9005.364802 -19566.898926 -15920.795815    -79.581698                    
V  5  17602.233830   8997.381962 -21304.018013      -.195948                    
P  6 -13672.706611  16292.184223  16068.215153    123.557711                    
V  6   -300.864786 -20296.029980  20627.514361       .153065                    
P  7  12989.791374  10282.233593  20764.798700     18.822924                    
V  7 -24277.366203  10314.673976   9953.363150      -.006311                    
P  8  23278.150739   1540.388727  13105.974287   -203.142150                    
V  8 -15313.616126   6235.475302  25877.553162      -.018187                    
P  9   5063.965597 -17116.603874 -20292.344020     55.973227                    
V  9  22687.608785  -8812.976219  13632.531691       .020151                    
P 10  11273.163926 -10317.819277  21574.835888    -16.018298                    
V 10  21236.972029  17902.599331  -2186.198483      -.005234                    
P 11  -1228.163439  18953.571099 -18650.594561     -2.617027                    
V 11 -21024.260069  11151.370433  13216.018469      -.014103                    
P 12  -6805.866064 -19886.307344 -16238.899438   -280.860747                    
V 12  17174.920420  11664.011233 -21268.659075       .052666                    
P 13   6965.923984  19376.318863  16648.532783    297.137654                    
V 13  -5557.645241  20615.811871 -21496.918768       .009456                    
P 14 -14459.336752  -1839.383423 -22082.249372   -110.301577                    
V 14   5173.090090 -27773.835590  -1178.924437       .059612                    
P 15   7304.428802 -24915.449498   5458.791555   -291.824794                    
V 15   1952.360402   7253.835817  30674.049010      -.037716                    
P 16 -15155.537508   6184.774279  21024.461157     50.852712                    
V 16 -19930.862466 -17446.838969  -9027.131241      -.033269                    
P 17  14788.788103   3713.731030 -21683.518737     59.104077                    
V 17  -4659.430181  27302.319251   1306.336504       .019451                    
P 18 -20520.793628 -17178.508912   -240.058100    -56.744107                    
V 18   1556.258654  -2709.046106  31102.849910       .033002                    
P 19  -7793.541926  25088.807473   2891.414360     25.613135                    
V 19  -2243.766373  -4224.272593  31552.950346      -.011072                    
P 20   8698.016886  20263.165372 -14961.664754     82.581840                    
V 20 -16421.070686  -9477.138670 -22533.708794      -.010398                    
P 21 -17042.737774  -8622.919718  18950.520939     13.866968                    
V 21  21496.723475  -9388.308175  14634.727481      -.020506                    
P 22 -22549.139726  -9346.075554 -10401.982921    199.637942                    
V 22  -8242.789378 -11048.443183  27313.534425      -.006060                    
P 23    569.417339  25549.325000   6619.232352    390.012281                    
V 23  -3937.502391   8015.004601 -30638.577704       .001462                    
P 24  -1905.247795 -15591.019419  21570.296901    189.066299                    
V 24  25768.067145  -8365.262900  -3537.885653       .029037                    
P 25   5612.175595  14153.108488  22114.760394    413.361903                    
V 25 -24314.581467  12233.267839  -1492.943036       .195549                    
P 26   1394.708769 -25691.341295  -5939.661321     60.950591                    
V 26   3442.578766  -6342.208184  31605.384230       .012906                    
P 27  13482.887908 -17080.246994 -14566.606999     49.255556                    
V 27  18686.581272  -6433.859299  23714.043919       .031012                    
P 28  22438.451443  11806.813299  -7998.046310    -24.794910                    
V 28   6633.346191   8649.431425  29467.108761      -.002807                    
P 29  -7133.664566 -20690.599623  15184.708757     20.279968                    
V 29   5298.774421 -18435.276090 -22753.008850       .038900                    
P 30 -16400.712162 -19361.468435  -8355.538105    146.445391                    
V 30   9764.518170   3762.510588 -29083.442954       .027413                    
P 31 -25347.893712   6883.464819  -4223.744695    -60.274916                    
V 31   4363.724108  -4186.932383 -31330.293748      -.008759                    
P 32   -222.003021  18088.151060 -19136.465123    261.223178                    
V 32 -19028.302034 -16355.202544 -14685.764381      -.052272                    
EOF
